YAOGAN-30 11A           
1 49026U 21065A   26068.71073618  .00004757  00000+0  35664-3 0  9999
2 49026  34.9929 159.1721 0004674 355.4238   4.6427 15.02110690253677
STARLINK-4406           
1 53667U 22105V   26068.67497366  .00005451  00000+0  38131-3 0  9990
2 53667  97.5995 311.2806 0003274  72.4901 287.6683 15.05688645193307
