[{"OBJECT_NAME":"YAOGAN-30 11A","OBJECT_ID":"2021-065A","EPOCH":"2026-03-09T17:03:27.605952","MEAN_MOTION":15.0211069,"ECCENTRICITY":0.00046738,"INCLINATION":34.9929,"RA_OF_ASC_NODE":159.1721,"ARG_OF_PERICENTER":355.4238,"MEAN_ANOMALY":4.6427,"EPHEMERIS_TYPE":0,"CLASSIFICATION_TYPE":"U","NORAD_CAT_ID":49026,"ELEMENT_SET_NO":999,"REV_AT_EPOCH":25367,"BSTAR":0.00035664483,"MEAN_MOTION_DOT":4.757e-5,"MEAN_MOTION_DDOT":0},{"OBJECT_NAME":"STARLINK-4406","OBJECT_ID":"2022-105V","EPOCH":"2026-03-09T16:11:57.725088","MEAN_MOTION":15.05688645,"ECCENTRICITY":0.00032736,"INCLINATION":97.5995,"RA_OF_ASC_NODE":311.2806,"ARG_OF_PERICENTER":72.4901,"MEAN_ANOMALY":287.6683,"EPHEMERIS_TYPE":0,"CLASSIFICATION_TYPE":"U","NORAD_CAT_ID":53667,"ELEMENT_SET_NO":999,"REV_AT_EPOCH":19330,"BSTAR":0.00038130822,"MEAN_MOTION_DOT":5.451e-5,"MEAN_MOTION_DDOT":0}]
